CCSDS_OMM_VERS = 2.0
CREATION_DATE  = 
ORIGINATOR     = 

OBJECT_NAME    = STARLINK-36590
OBJECT_ID      = 2026-016S
CENTER_NAME    = EARTH
REF_FRAME      = TEME
TIME_SYSTEM    = UTC
MEAN_ELEMENT_THEORY = SGP/SGP4

EPOCH          = 2026-02-15T04:00:01.999584
MEAN_MOTION    = 15.75267480
ECCENTRICITY   = .0001372
INCLINATION    = 97.2850
RA_OF_ASC_NODE = 105.5269
ARG_OF_PERICENTER = 75.0161
MEAN_ANOMALY   = 39.4366

EPHEMERIS_TYPE = 0
CLASSIFICATION_TYPE = U
NORAD_CAT_ID   = 67577
ELEMENT_SET_NO = 999
REV_AT_EPOCH   = 442
BSTAR          = -.63247E-3
MEAN_MOTION_DOT = -.93754E-3
MEAN_MOTION_DDOT = 0

CCSDS_OMM_VERS = 2.0
CREATION_DATE  = 
ORIGINATOR     = 

OBJECT_NAME    = STARLINK-36613
OBJECT_ID      = 2026-016T
CENTER_NAME    = EARTH
REF_FRAME      = TEME
TIME_SYSTEM    = UTC
MEAN_ELEMENT_THEORY = SGP/SGP4

EPOCH          = 2026-02-15T03:18:04.483296
MEAN_MOTION    = 15.80856550
ECCENTRICITY   = .0001264
INCLINATION    = 97.2843
RA_OF_ASC_NODE = 105.5154
ARG_OF_PERICENTER = 63.1186
MEAN_ANOMALY   = 297.0211

EPHEMERIS_TYPE = 0
CLASSIFICATION_TYPE = U
NORAD_CAT_ID   = 67578
ELEMENT_SET_NO = 999
REV_AT_EPOCH   = 325
BSTAR          = .59622E-3
MEAN_MOTION_DOT = .115803E-2
MEAN_MOTION_DDOT = 0

CCSDS_OMM_VERS = 2.0
CREATION_DATE  = 
ORIGINATOR     = 

OBJECT_NAME    = STARLINK-36571
OBJECT_ID      = 2026-016U
CENTER_NAME    = EARTH
REF_FRAME      = TEME
TIME_SYSTEM    = UTC
MEAN_ELEMENT_THEORY = SGP/SGP4

EPOCH          = 2026-02-14T06:00:02.000160
MEAN_MOTION    = 15.75182085
ECCENTRICITY   = .00012008
INCLINATION    = 97.2845
RA_OF_ASC_NODE = 104.5555
ARG_OF_PERICENTER = 101.7788
MEAN_ANOMALY   = 196.1209

EPHEMERIS_TYPE = 0
CLASSIFICATION_TYPE = U
NORAD_CAT_ID   = 67579
ELEMENT_SET_NO = 999
REV_AT_EPOCH   = 428
BSTAR          = -.1065725E-3
MEAN_MOTION_DOT = -.1599E-3
MEAN_MOTION_DDOT = 0

CCSDS_OMM_VERS = 2.0
CREATION_DATE  = 
ORIGINATOR     = 

OBJECT_NAME    = STARLINK-36612
OBJECT_ID      = 2026-016V
CENTER_NAME    = EARTH
REF_FRAME      = TEME
TIME_SYSTEM    = UTC
MEAN_ELEMENT_THEORY = SGP/SGP4

EPOCH          = 2026-02-14T05:58:11.141184
MEAN_MOTION    = 15.80890351
ECCENTRICITY   = .00011882
INCLINATION    = 97.2839
RA_OF_ASC_NODE = 104.5823
ARG_OF_PERICENTER = 90.1505
MEAN_ANOMALY   = 269.9900

EPHEMERIS_TYPE = 0
CLASSIFICATION_TYPE = U
NORAD_CAT_ID   = 67580
ELEMENT_SET_NO = 999
REV_AT_EPOCH   = 311
BSTAR          = .74586051E-3
MEAN_MOTION_DOT = .145627E-2
MEAN_MOTION_DDOT = 0

CCSDS_OMM_VERS = 2.0
CREATION_DATE  = 
ORIGINATOR     = 

OBJECT_NAME    = STARLINK-36632
OBJECT_ID      = 2026-016W
CENTER_NAME    = EARTH
REF_FRAME      = TEME
TIME_SYSTEM    = UTC
MEAN_ELEMENT_THEORY = SGP/SGP4

EPOCH          = 2026-02-14T06:00:02.000160
MEAN_MOTION    = 15.75217661
ECCENTRICITY   = .00011107
INCLINATION    = 97.2841
RA_OF_ASC_NODE = 104.5836
ARG_OF_PERICENTER = 73.6487
MEAN_ANOMALY   = 292.2317

EPHEMERIS_TYPE = 0
CLASSIFICATION_TYPE = U
NORAD_CAT_ID   = 67581
ELEMENT_SET_NO = 999
REV_AT_EPOCH   = 428
BSTAR          = -.47152044E-3
MEAN_MOTION_DOT = -.69969E-3
MEAN_MOTION_DDOT = 0

CCSDS_OMM_VERS = 2.0
CREATION_DATE  = 
ORIGINATOR     = 

OBJECT_NAME    = STARLINK-36609
OBJECT_ID      = 2026-016X
CENTER_NAME    = EARTH
REF_FRAME      = TEME
TIME_SYSTEM    = UTC
MEAN_ELEMENT_THEORY = SGP/SGP4

EPOCH          = 2026-02-14T04:49:57.263808
MEAN_MOTION    = 15.75246253
ECCENTRICITY   = .00014654
INCLINATION    = 97.2844
RA_OF_ASC_NODE = 104.4932
ARG_OF_PERICENTER = 85.7713
MEAN_ANOMALY   = 274.3720

EPHEMERIS_TYPE = 0
CLASSIFICATION_TYPE = U
NORAD_CAT_ID   = 67582
ELEMENT_SET_NO = 999
REV_AT_EPOCH   = 310
BSTAR          = .1033646E-2
MEAN_MOTION_DOT = .1573E-2
MEAN_MOTION_DDOT = 0

CCSDS_OMM_VERS = 2.0
CREATION_DATE  = 
ORIGINATOR     = 

OBJECT_NAME    = STARLINK-36577
OBJECT_ID      = 2026-016Y
CENTER_NAME    = EARTH
REF_FRAME      = TEME
TIME_SYSTEM    = UTC
MEAN_ELEMENT_THEORY = SGP/SGP4

EPOCH          = 2026-02-14T05:56:03.661440
MEAN_MOTION    = 15.80935675
ECCENTRICITY   = .00020188
INCLINATION    = 97.2836
RA_OF_ASC_NODE = 104.5837
ARG_OF_PERICENTER = 126.5345
MEAN_ANOMALY   = 233.6110

EPHEMERIS_TYPE = 0
CLASSIFICATION_TYPE = U
NORAD_CAT_ID   = 67583
ELEMENT_SET_NO = 999
REV_AT_EPOCH   = 311
BSTAR          = .12499136E-2
MEAN_MOTION_DOT = .247547E-2
MEAN_MOTION_DDOT = 0

CCSDS_OMM_VERS = 2.0
CREATION_DATE  = 
ORIGINATOR     = 

OBJECT_NAME    = STARLINK-36419
OBJECT_ID      = 2026-016Z
CENTER_NAME    = EARTH
REF_FRAME      = TEME
TIME_SYSTEM    = UTC
MEAN_ELEMENT_THEORY = SGP/SGP4

EPOCH          = 2026-02-14T05:50:18.502944
MEAN_MOTION    = 15.80920874
ECCENTRICITY   = .00016571
INCLINATION    = 97.2839
RA_OF_ASC_NODE = 104.5896
ARG_OF_PERICENTER = 113.4270
MEAN_ANOMALY   = 246.7172

EPHEMERIS_TYPE = 0
CLASSIFICATION_TYPE = U
NORAD_CAT_ID   = 67584
ELEMENT_SET_NO = 999
REV_AT_EPOCH   = 311
BSTAR          = .11995674E-2
MEAN_MOTION_DOT = .23712E-2
MEAN_MOTION_DDOT = 0

CCSDS_OMM_VERS = 2.0
CREATION_DATE  = 
ORIGINATOR     = 

OBJECT_NAME    = STARLINK-36560
OBJECT_ID      = 2026-016AA
CENTER_NAME    = EARTH
REF_FRAME      = TEME
TIME_SYSTEM    = UTC
MEAN_ELEMENT_THEORY = SGP/SGP4

EPOCH          = 2026-02-14T04:16:39.272448
MEAN_MOTION    = 15.80885199
ECCENTRICITY   = .00008321
INCLINATION    = 97.2844
RA_OF_ASC_NODE = 104.5249
ARG_OF_PERICENTER = 141.0787
MEAN_ANOMALY   = 219.0542

EPHEMERIS_TYPE = 0
CLASSIFICATION_TYPE = U
NORAD_CAT_ID   = 67585
ELEMENT_SET_NO = 999
REV_AT_EPOCH   = 310
BSTAR          = .10254545E-2
MEAN_MOTION_DOT = .20152E-2
MEAN_MOTION_DDOT = 0

CCSDS_OMM_VERS = 2.0
CREATION_DATE  = 
ORIGINATOR     = 

OBJECT_NAME    = NAVSTAR 85 (USA 581)
OBJECT_ID      = 2026-017A
CENTER_NAME    = EARTH
REF_FRAME      = TEME
TIME_SYSTEM    = UTC
MEAN_ELEMENT_THEORY = SGP/SGP4

EPOCH          = 2026-02-12T13:17:02.325696
MEAN_MOTION    = 2.00561410
ECCENTRICITY   = .00008563
INCLINATION    = 55.0048
RA_OF_ASC_NODE = 93.7569
ARG_OF_PERICENTER = 60.0428
MEAN_ANOMALY   = 300.0334

EPHEMERIS_TYPE = 0
CLASSIFICATION_TYPE = U
NORAD_CAT_ID   = 67588
ELEMENT_SET_NO = 999
REV_AT_EPOCH   = 42911
BSTAR          = 0
MEAN_MOTION_DOT = -.16E-6
MEAN_MOTION_DDOT = 0

CCSDS_OMM_VERS = 2.0
CREATION_DATE  = 
ORIGINATOR     = 

OBJECT_NAME    = STARLINK-36641
OBJECT_ID      = 2026-018A
CENTER_NAME    = EARTH
REF_FRAME      = TEME
TIME_SYSTEM    = UTC
MEAN_ELEMENT_THEORY = SGP/SGP4

EPOCH          = 2026-02-15T04:00:01.999584
MEAN_MOTION    = 15.75275469
ECCENTRICITY   = .0001157
INCLINATION    = 97.2841
RA_OF_ASC_NODE = 110.8179
ARG_OF_PERICENTER = 75.2061
MEAN_ANOMALY   = 122.7110

EPHEMERIS_TYPE = 0
CLASSIFICATION_TYPE = U
NORAD_CAT_ID   = 67589
ELEMENT_SET_NO = 999
REV_AT_EPOCH   = 372
BSTAR          = -.53446E-3
MEAN_MOTION_DOT = -.79402E-3
MEAN_MOTION_DDOT = 0

CCSDS_OMM_VERS = 2.0
CREATION_DATE  = 
ORIGINATOR     = 

OBJECT_NAME    = STARLINK-36376
OBJECT_ID      = 2026-018B
CENTER_NAME    = EARTH
REF_FRAME      = TEME
TIME_SYSTEM    = UTC
MEAN_ELEMENT_THEORY = SGP/SGP4

EPOCH          = 2026-02-15T02:57:51.180192
MEAN_MOTION    = 15.80862958
ECCENTRICITY   = .0001137
INCLINATION    = 97.2841
RA_OF_ASC_NODE = 110.7905
ARG_OF_PERICENTER = 80.9971
MEAN_ANOMALY   = 279.1426

EPHEMERIS_TYPE = 0
CLASSIFICATION_TYPE = U
NORAD_CAT_ID   = 67590
ELEMENT_SET_NO = 999
REV_AT_EPOCH   = 375
BSTAR          = .71133E-3
MEAN_MOTION_DOT = .138593E-2
MEAN_MOTION_DDOT = 0

