STARLINK-36590          
1 67577U 26016S   26046.16668981 -.00093754  00000+0 -63247-3 0  9994
2 67577  97.2850 105.5269 0001372  75.0161  39.4366 15.75267480  4422
STARLINK-36613          
1 67578U 26016T   26046.13755189  .00115803  00000+0  59622-3 0  9999
2 67578  97.2843 105.5154 0001264  63.1186 297.0211 15.80856550  3252
STARLINK-36571          
1 67579U 26016U   26045.25002315 -.00015990  00000+0 -10657-3 0  9991
2 67579  97.2845 104.5555 0001200 101.7788 196.1209 15.75182085  4285
STARLINK-36612          
1 67580U 26016V   26045.24874006  .00145627  00000+0  74586-3 0  9996
2 67580  97.2839 104.5823 0001188  90.1505 269.9900 15.80890351  3117
STARLINK-36632          
1 67581U 26016W   26045.25002315 -.00069969  00000+0 -47152-3 0  9999
2 67581  97.2841 104.5836 0001110  73.6487 292.2317 15.75217661  4286
STARLINK-36609          
1 67582U 26016X   26045.20135722  .00157300  00000+0  10336-2 0  9992
2 67582  97.2844 104.4932 0001465  85.7713 274.3720 15.75246253  3103
STARLINK-36577          
1 67583U 26016Y   26045.24726460  .00247547  00000+0  12499-2 0  9997
2 67583  97.2836 104.5837 0002018 126.5345 233.6110 15.80935675  3111
STARLINK-36419          
1 67584U 26016Z   26045.24326971  .00237120  00000+0  11996-2 0  9998
2 67584  97.2839 104.5896 0001657 113.4270 246.7172 15.80920874  3118
STARLINK-36560          
1 67585U 26016AA  26045.17823232  .00201520  00000+0  10255-2 0  9995
2 67585  97.2844 104.5249 0000832 141.0787 219.0542 15.80885199  3104
NAVSTAR 85 (USA 581)    
1 67588U 26017A   26043.55349914 -.00000016  00000+0  00000+0 0  9991
2 67588  55.0048  93.7569 0000856  60.0428 300.0334  2.00561410429115
STARLINK-36641          
1 67589U 26018A   26046.16668981 -.00079402  00000+0 -53446-3 0  9993
2 67589  97.2841 110.8179 0001157  75.2061 122.7110 15.75275469  3727
STARLINK-36376          
1 67590U 26018B   26046.12350903  .00138593  00000+0  71133-3 0  9991
2 67590  97.2841 110.7905 0001137  80.9971 279.1426 15.80862958  3757
